{
  "reviews": [
    {
      "id": 1,
      "name": "Rock Cut Brewing Company",
      "city": "Estes Park",
      "review": "We had the best time at trivia which Rock Cut hosts every Tuesday night!",
      "image": ""
    },
    {
      "id": 2,
      "name": "Avery Brewing Co",
      "city": "Boulder",
      "review": "Dogs are welcome on the patio! Who doesn't love a dog party with their happy hour brew?!",
      "image": ""
    },
    {
      "id": 3,
      "name": "New Belgium Brewing Co",
      "city": "Fort Collins",
      "review": "Lots of room for the kids to run and play while you enjoy sunshine and live music!",
      "image": ""
    }
  ],
  "estesParkBrews": [
    {
      "id": "d07100f1-ab4b-413e-bc07-045ee4d61fe6",
      "name": "Avant Garde Aleworks",
      "type": "micro",
      "address": "920 Dunraven St",
      "city": "Estes Park",
      "state": "Colorado",
      "zip": "80517",
      "phone": "9705912700",
      "url": "https://avantgardealeworks.com"
    },
    {
      "id": "b07c36e6-95d2-4fdc-981f-8266a0bc3786",
      "name": "Estes Park Brewery",
      "type": "micro",
      "address": "470 Prospect Village Dr",
      "city": "Estes Park",
      "state": "Colorado",
      "zip": "80517",
      "phone": "9705865421",
      "url": "http://www.epbrewery.net"
    },
    {
      "id": "90d7563e-7ff5-4fb4-aab3-19275c21bd9d",
      "name": "Lumpy Ridge Brewing Co",
      "type": "micro",
      "address": "531 S St Vrain Ave",
      "city": "Estes Park",
      "state": "Colorado",
      "zip": "80517-7416",
      "phone": "9702351752",
      "url": "http://www.lumpyridgebrewing.com"
    },
    {
      "id": "6f35def1-f9b1-4712-9510-1c0b5b172b76",
      "name": "Rock Cut Brewing Company",
      "type": "micro",
      "address": "390 W Riverside Dr",
      "city": "Estes Park",
      "state": "Colorado",
      "zip": "80517",
      "phone": "9705867300",
      "url": "http://www.rockcutbrewing.com"
    }
  ],
  "fortCollinsBrews": [
    {
      "id": "12bc86df-c66b-4fb9-9f84-5bb405ccb8b1",
      "name": "Anheuser-Busch Inc - Fort Collins",
      "type": "large",
      "address": "2351 Busch Dr",
      "city": "Fort Collins",
      "state": "Colorado",
      "zip": "80524-9400",
      "phone": "9704904500",
      "url": null
    },
    {
      "id": "4e7d4dcd-13cd-4b18-acd3-7a690ba97aa0",
      "name": "Snowbank Brewing",
      "type": "micro",
      "address": "225 N Lemay Ave Ste 1",
      "city": "Fort Collins",
      "state": "Colorado",
      "zip": "80524-2555",
      "phone": "9709995658",
      "url": "http://www.snowbank.beer"
    },
    {
      "id": "dff336da-9bbd-4e06-8ab9-405775650ed5",
      "name": "Soul Squared Brewing Co.",
      "type": "micro",
      "address": "6412 N County Road 15",
      "city": "Fort Collins",
      "state": "Colorado",
      "zip": "80524",
      "phone": null,
      "url": "http://www.soulsquaredbrewing.com"
    },
    {
      "id": "994b7ef7-6d89-4f01-ba5f-858c3bf76bcb",
      "name": "Three Four Beer Company",
      "type": "brewpub",
      "address": "829 S Shields St",
      "city": "Fort Collins",
      "state": "Colorado",
      "zip": "80521-3599",
      "phone": "9706821560",
      "url": "http://www.threefourbeerco.com"
    },
    {
      "id": "a602e9ea-f0b3-4a40-8aa8-02e0aace191c",
      "name": "Zwei Brewing Co",
      "type": "micro",
      "address": "4612 S Mason St Ste 120",
      "city": "Fort Collins",
      "state": "Colorado",
      "zip": "80525-3794",
      "phone": "9702232482",
      "url": "http://www.zweibruderbrewing.com"
    },
    {
      "id": "2d1c4b89-4d44-4f47-8ea1-b11fdfc247bd",
      "name": "Black Bottle Brewery",
      "type": "brewpub",
      "address": "1611 S College Ave Ste STE1609",
      "city": "Fort Collins",
      "state": "Colorado",
      "zip": "80525-1074",
      "phone": "9704932337",
      "url": "http://www.blackbottlebrewery.com"
    },
    {
      "id": "781937cb-face-47db-a452-fc3997cca025",
      "name": "CooperSmiths Pub and Brewing",
      "type": "brewpub",
      "address": "5 Old Town Sq",
      "city": "Fort Collins",
      "state": "Colorado",
      "zip": "80524-2446",
      "phone": "9704980483",
      "url": "http://www.coopersmithspub.com"
    },
    {
      "id": "30d25781-6bd5-4401-bf30-fbde7de4c15b",
      "name": "Jessup Farm Barrel House",
      "type": "micro",
      "address": "1921 Jessup Dr",
      "city": "Fort Collins",
      "state": "Colorado",
      "zip": "80525-2551",
      "phone": "9705688345",
      "url": "http://jessupfarm.com/barrel-house/"
    },
    {
      "id": "16a73b0d-7b12-4ba3-b43c-8d8e8e34489a",
      "name": "Maxline Brewing",
      "type": "micro",
      "address": "2724 McClelland Dr Ste 190",
      "city": "Fort Collins",
      "state": "Colorado",
      "zip": "80525-2575",
      "phone": "9702862855",
      "url": "http://www.maxlinebrewing.com"
    },
    {
      "id": "3b174e82-0a69-43c6-9b47-94cd039c59c3",
      "name": "Intersect Brewing",
      "type": "micro",
      "address": "2160 W Drake Rd Unit A1",
      "city": "Fort Collins",
      "state": "Colorado",
      "zip": "80526-1486",
      "phone": "9706822041",
      "url": "http://www.intersectbrewing.com"
    },
    {
      "id": "8938798a-3cd6-4864-96a9-e6febf1b25be",
      "name": "McClellan's Brewing Company",
      "type": "brewpub",
      "address": "1035 S Taft Hill Rd",
      "city": "Fort Collins",
      "state": "Colorado",
      "zip": "80521-4222",
      "phone": "9705688473",
      "url": "http://www.mcclellansbrewingcompany.com"
    },
    {
      "id": "1b0bf444-c830-4958-922c-5c1b46fe37f5",
      "name": "New Belgium Brewing Co",
      "type": "regional",
      "address": "500 Linden St",
      "city": "Fort Collins",
      "state": "Colorado",
      "zip": "80524-2457",
      "phone": "9702210524",
      "url": "http://www.newbelgium.com"
    },
    {
      "id": "63fd2c11-5530-4de9-8fe2-8fbf65e3a49f",
      "name": "Odell Brewing Co",
      "type": "regional",
      "address": "800 E Lincoln Ave",
      "city": "Fort Collins",
      "state": "Colorado",
      "zip": "80524-2507",
      "phone": "9704989070",
      "url": "http://www.odellbrewing.com"
    },
    {
      "id": "1d26e5a5-2e88-45d7-94ef-0e10c85cecde",
      "name": "Pitchers Sports Restaurant and Brewery",
      "type": "brewpub",
      "address": "1100 W Drake Rd",
      "city": "Fort Collins",
      "state": "Colorado",
      "zip": "80526-6008",
      "phone": "9704935374",
      "url": "http://www.pitchersbrewery.com"
    },
    {
      "id": "0676073b-a116-400c-a65a-7101daefc68b",
      "name": "Prost Brewing Fort Collins",
      "type": "planning",
      "address": null,
      "city": "Fort Collins",
      "state": "Colorado",
      "zip": "80524-2162",
      "phone": "9704842421",
      "url": null
    },
    {
      "id": "fd475f2e-1e9e-4cd4-a9eb-e78f995a9300",
      "name": "D.C. Oakes Brewhouse and Eatery",
      "type": "brewpub",
      "address": "3581 E Harmony Suite 110",
      "city": "Fort Collins",
      "state": "Colorado",
      "zip": "80528",
      "phone": "3034061757",
      "url": "http://www.dcoakesbrewhouse.com"
    },
    {
      "id": "b8e7517b-317b-4e4d-9d3d-4f7a35200908",
      "name": "Purpose Brewing and Cellars",
      "type": "micro",
      "address": "4025 S Mason St Unit C",
      "city": "Fort Collins",
      "state": "Colorado",
      "zip": "80525-5953",
      "phone": "9703774107",
      "url": "http://www.purposebrewing.com"
    },
    {
      "id": "a3a2cc22-a18b-4cf9-86df-0ca06723116d",
      "name": "Equinox Brewing",
      "type": "micro",
      "address": "133 Remington St",
      "city": "Fort Collins",
      "state": "Colorado",
      "zip": "80524-2833",
      "phone": "9704841368",
      "url": "http://www.equinoxbrewing.com"
    },
    {
      "id": "5806ef06-a300-4a88-820e-f14e0c290794",
      "name": "Rally King Brewing",
      "type": "micro",
      "address": "1624 S Lemay Ave Unit 4",
      "city": "Fort Collins",
      "state": "Colorado",
      "zip": "80525-1188",
      "phone": "9705688936",
      "url": "http://www.rallykingbrewing.com"
    },
    {
      "id": "a2479685-7402-413d-8398-357db4a5aed8",
      "name": "Ramskeller",
      "type": "planning",
      "address": null,
      "city": "Fort Collins",
      "state": "Colorado",
      "zip": "80523-0001",
      "phone": "9704911055",
      "url": null
    },
    {
      "id": "1367028f-a358-4917-9c55-7ffb6fce1c4e",
      "name": "Funkwerks",
      "type": "micro",
      "address": "1900 E Lincoln Ave Unit B",
      "city": "Fort Collins",
      "state": "Colorado",
      "zip": "80524-2789",
      "phone": "9704823865",
      "url": "http://www.funkwerks.com"
    },
    {
      "id": "78f72432-7c43-4f4b-9eb9-6abadb3e7a07",
      "name": "Red Truck Beer Company Ltd.",
      "type": "micro",
      "address": "1020 E Lincoln Ave",
      "city": "Fort Collins",
      "state": "Colorado",
      "zip": "80524-2509",
      "phone": "6046824733",
      "url": null
    },
    {
      "id": "311072a3-c9ed-4df1-8efa-896888547e86",
      "name": "Gilded Goat Brewing Company",
      "type": "micro",
      "address": "3500 S College Ave Ste 194",
      "city": "Fort Collins",
      "state": "Colorado",
      "zip": "80525-2639",
      "phone": "9708257192",
      "url": "http://www.gildedgoatbrewing.com"
    },
    {
      "id": "b302bba4-5c90-4ab5-a9ae-f935ccd19059",
      "name": "Horse & Dragon Brewing Company",
      "type": "micro",
      "address": "124 Racquette Dr",
      "city": "Fort Collins",
      "state": "Colorado",
      "zip": "80524-2757",
      "phone": "9706318038",
      "url": "http://www.horseanddragonbrewing.com"
    }
  ],
  "boulderBrews": [
    {
      "id": "051edb66-62ad-455e-a04a-d6a0e5fa4178",
      "name": "Asher Brewing Co",
      "type": "micro",
      "address": "4699 Nautilus Ct S Ste 104",
      "city": "Boulder",
      "state": "Colorado",
      "zip": "80301-5306",
      "phone": "3035301381",
      "url": "http://asherbrewing.com"
    },
    {
      "id": "05b3f6bc-e7cf-40bb-8bdb-1dfc1a619c5f",
      "name": "Upslope Brewing Company - Flatiron Park",
      "type": "micro",
      "address": "1898 S Flatiron Ct Ste 110",
      "city": "Boulder",
      "state": "Colorado",
      "zip": "80301-2860",
      "phone": null,
      "url": "http://www.upslopebrewing.com"
    },
    {
      "id": "ece6204a-29eb-47e1-868d-55c2a78bc06c",
      "name": "Upslope Brewing Company - Lee Hill",
      "type": "regional",
      "address": "1501 Lee Hill Rd Unit 20",
      "city": "Boulder",
      "state": "Colorado",
      "zip": "80304-5602",
      "phone": "3033961898",
      "url": "http://www.upslopebrewing.com"
    },
    {
      "id": "b8005ec5-1fc7-43bd-96e6-a5b185c927d8",
      "name": "Vision Quest Brewing Company",
      "type": "micro",
      "address": "2510 47th St Ste A2",
      "city": "Boulder",
      "state": "Colorado",
      "zip": "80301-2301",
      "phone": "3038986802",
      "url": "http://www.visionquestbrewing.com"
    },
    {
      "id": "9ffda059-096e-4ae7-805b-49709737f941",
      "name": "West Flanders Brewing Co",
      "type": "brewpub",
      "address": "1125 Pearl St",
      "city": "Boulder",
      "state": "Colorado",
      "zip": "80302-5103",
      "phone": "3034472739",
      "url": "http://www.wfbrews.com"
    },
    {
      "id": "ed289ab7-9588-429f-bc3d-5977c5120d9f",
      "name": "Wild Woods Brewery",
      "type": "micro",
      "address": "5460 Conestoga Ct",
      "city": "Boulder",
      "state": "Colorado",
      "zip": "80301-2724",
      "phone": "3034841465",
      "url": "http://www.wildwoodsbrewery.com"
    },
    {
      "id": "3bde4342-bfc1-49cb-9b40-7fb1aef26886",
      "name": "Avery Brewing Co",
      "type": "regional",
      "address": "4910 Nautilus Ct N",
      "city": "Boulder",
      "state": "Colorado",
      "zip": "80301-3242",
      "phone": null,
      "url": null
    },
    {
      "id": "01e79aac-e955-4846-826e-1936e03bfd13",
      "name": "Beyond The Mountain Brewing Company",
      "type": "micro",
      "address": "6035 Longbow Dr Unit 109",
      "city": "Boulder",
      "state": "Colorado",
      "zip": "80301-3203",
      "phone": "7574072346",
      "url": "http://www.btmbrewing.com"
    },
    {
      "id": "57b4c49f-7c62-4f88-8027-deeb7aa29a99",
      "name": "BJs Restaurant & Brewery - Boulder",
      "type": "brewpub",
      "address": "1690 28th St",
      "city": "Boulder",
      "state": "Colorado",
      "zip": "80301-",
      "phone": "3034405200",
      "url": "http://www.bjsrestaurants.com"
    },
    {
      "id": "01a7842a-3139-475e-95e9-e5a671c236ef",
      "name": "Black Cat Brewing",
      "type": "planning",
      "address": null,
      "city": "Boulder",
      "state": "Colorado",
      "zip": "80302",
      "phone": null,
      "url": "http://www.blackcatbrewing.com"
    },
    {
      "id": "9de1818b-9215-4043-a36b-d1dce42776ae",
      "name": "Boulder Beer Co",
      "type": "regional",
      "address": "2880 Wilderness Pl",
      "city": "Boulder",
      "state": "Colorado",
      "zip": "80301-5401",
      "phone": null,
      "url": null
    },
    {
      "id": "d3e1adcf-6b5c-4cbc-95e7-c980ccb79742",
      "name": "Boulder Beer On Walnut",
      "type": "brewpub",
      "address": "1123 Walnut St",
      "city": "Boulder",
      "state": "Colorado",
      "zip": "80302-5116",
      "phone": "3034471345",
      "url": null
    },
    {
      "id": "0afcc8c2-d95e-4ef3-9f55-009e01afeb4b",
      "name": "Boulder Dam Brewing Company",
      "type": "brewpub",
      "address": "453 Nevada Way",
      "city": "Boulder City",
      "state": "Nevada",
      "zip": "89005-2424",
      "phone": null,
      "url": null
    },
    {
      "id": "48a7cc57-7544-472d-bc89-2e12ab8e6d53",
      "name": "BRU Handbuilt Ales and Eats",
      "type": "brewpub",
      "address": "5290 Arapahoe Ave",
      "city": "Boulder",
      "state": "Colorado",
      "zip": "80303-1269",
      "phone": "7206385193",
      "url": "http://www.bruboulder.com"
    },
    {
      "id": "c8914288-0a70-4f53-9c72-d65595b103f8",
      "name": "Cellar West Artisan Ales",
      "type": "micro",
      "address": "1001 Lee Hill Dr Ste 10",
      "city": "Boulder",
      "state": "Colorado",
      "zip": "80302-9471",
      "phone": "2627198795",
      "url": "http://www.cellarwest.com"
    },
    {
      "id": "82221e83-b64e-43c2-9593-0ec456674870",
      "name": "FATE Brewing Company",
      "type": "brewpub",
      "address": "1600 38th St Ste 100",
      "city": "Boulder",
      "state": "Colorado",
      "zip": "80301-2610",
      "phone": null,
      "url": null
    },
    {
      "id": "b7f0e370-efcc-4894-b0af-35e90917724f",
      "name": "Finkel & Garf Brewing Co.",
      "type": "micro",
      "address": "5455 Spine Rd Ste A",
      "city": "Boulder",
      "state": "Colorado",
      "zip": "80301-3364",
      "phone": null,
      "url": "http://www.finkelandgarf.com"
    },
    {
      "id": "6872c14f-c3c4-49ea-a714-8c25b62163d4",
      "name": "Gunbarrel Brewing Company",
      "type": "micro",
      "address": "7088 Winchester Cir Ste 2",
      "city": "Boulder",
      "state": "Colorado",
      "zip": "80301-3761",
      "phone": "8008035732",
      "url": "http://www.gunbarrelbrewing.com"
    },
    {
      "id": "9ec5dc47-15d0-463a-90ba-40b06610a65f",
      "name": "Kettle and Spoke Brewery, LLC",
      "type": "micro",
      "address": "2500 47th St Ste 12",
      "city": "Boulder",
      "state": "Colorado",
      "zip": "80301-2335",
      "phone": "7196509697",
      "url": "http://www.kettleandspoke.com"
    },
    {
      "id": "e5a383c9-cf8d-4115-b2ab-e59aa504624e",
      "name": "Mountain Sun Pub and Brewery",
      "type": "brewpub",
      "address": "1535 Pearl St",
      "city": "Boulder",
      "state": "Colorado",
      "zip": "80302-5408",
      "phone": "3035460886",
      "url": "http://www.mountainsunpub.com"
    },
    {
      "id": "d0ef1b88-ae8d-4d85-889c-16bf9f4fb58e",
      "name": "New Planet Beer Co",
      "type": "contract",
      "address": "3980 Broadway St Ste 103 # 116",
      "city": "Boulder",
      "state": "Colorado",
      "zip": "80304-1161",
      "phone": "3034994978",
      "url": "http://www.newplanetbeer.com"
    },
    {
      "id": "59639100-39ec-491e-bbe4-680013452e0b",
      "name": "Sanitas Brewing Co",
      "type": "micro",
      "address": "3550 Frontier Ave Ste A",
      "city": "Boulder",
      "state": "Colorado",
      "zip": "80301-2430",
      "phone": "2152667762",
      "url": "http://www.sanitasbrewing.com/"
    },
    {
      "id": "7b6e3cce-d456-4ae4-9e09-8debafb72d3a",
      "name": "Southern Sun Pub and Brewery",
      "type": "brewpub",
      "address": "627 S Broadway St",
      "city": "Boulder",
      "state": "Colorado",
      "zip": "80305-5944",
      "phone": "3035430886",
      "url": "http://www.mountainsunpub.com"
    },
    {
      "id": "7bfc0b84-5f81-4277-80ee-ea3633c6d1d4",
      "name": "Stein Brewing Company",
      "type": "micro",
      "address": "2516 49th St",
      "city": "Boulder",
      "state": "Colorado",
      "zip": "80301-2455",
      "phone": "3033960384",
      "url": "http://www.jwellsbrewery.com"
    },
    {
      "id": "8d658be9-25c4-4c6c-8067-f2f48ca84796",
      "name": "The Post Brewing Co",
      "type": "brewpub",
      "address": "2027 13th St",
      "city": "Boulder",
      "state": "Colorado",
      "zip": "80302-5201",
      "phone": "7203723341",
      "url": "http://www.postbrewing.com"
    },
    {
      "id": "35d329e7-2608-44c0-b328-c3d54dd764cf",
      "name": "Twisted Pine Brewing Co",
      "type": "brewpub",
      "address": "3201 Walnut St Ste A",
      "city": "Boulder",
      "state": "Colorado",
      "zip": "80301-2645",
      "phone": "3037869270",
      "url": "http://www.twistedpinebrewing.com"
    },
    {
      "id": "00ea9c67-130c-4fa0-9b92-8cfb2b6ca81f",
      "name": "Unnamed Beer Company, LLC",
      "type": "planning",
      "address": null,
      "city": "Boulder",
      "state": "Colorado",
      "zip": "80301",
      "phone": null,
      "url": "http://www.unnamedbeer.com"
    },
    {
      "id": "d6349994-f0fb-4b87-a49d-b1647f711e26",
      "name": "Upslope Brewing Company",
      "type": "planning",
      "address": null,
      "city": "Boulder",
      "state": "Colorado",
      "zip": "80301",
      "phone": "3033961898",
      "url": null
    }
  ]
}
